CAS-2T & KS-1Q          
1 41847U 16066G   20366.87368024  .00000116  00000-0  27938-4 0  9999
2 41847  98.6278  59.0940 0365449   0.6286 359.5289 14.38132254217796
NAYIF-1 (EO-88)         
1 42017U 17008BX  20366.88466067  .00002844  00000-0  10903-3 0  9996
2 42017  97.3384  71.3931 0005758 359.2677   0.8552 15.27306193215676
ZHUHAI-1 02 (CAS-4B)    
1 42759U 17034B   20366.95004692  .00000552  00000-0  46732-4 0  9992
2 42759  43.0192  21.8210 0009555 202.5543 232.7898 15.10025273195827
ZHUHAI-1 01 (CAS-4A)    
1 42761U 17034D   20366.95030740  .00000635  00000-0  51616-4 0  9997
2 42761  43.0191  20.9908 0010512 202.8044 233.5301 15.10106298195822
MAX VALIER SAT          
1 42778U 17036P   20366.73602628  .00001606  00000-0  70884-4 0  9990
2 42778  97.2800  54.6638 0013276  53.1985 307.0468 15.23103654195753
RADFXSAT (FOX-1B)       
1 43017U 17073E   20366.79832130  .00000686  00000-0  57767-4 0  9999
2 43017  97.7174 271.3531 0257130 126.9844 235.5206 14.79236550168332
FOX-1D (AO-92)          
1 43137U 18004AC  20366.87699826  .00001911  00000-0  80153-4 0  9996
2 43137  97.4266  76.5273 0010622  83.4678 276.7768 15.24675353165120
DIWATA-2B               
1 43678U 18084H   20366.82605152  .00000034  00000-0  91161-5 0  9995
2 43678  97.9037 125.4910 0008686 241.3086 118.7286 14.91690534118442
ES'HAIL 2               
1 43700U 18090A   20366.49077264  .00000161  00000-0  00000-0 0  9996
2 43700   0.0229  20.8950 0001989 297.2711 344.7112  1.00272951  7689
FOX-1CLIFF (AO-95)      
1 43770U 18099N   20366.61341155  .00000963  00000-0  92819-4 0  9992
2 43770  97.6865  74.3487 0013054 256.8978 103.0786 14.95156134113374
ITASAT 1                
1 43786U 18099AE  20366.76759300  .00000228  00000-0  25788-4 0  9995
2 43786  97.6884  75.0607 0013765 249.7164 110.2577 14.95474344113421
JY1SAT (JO-97)          
1 43803U 18099AX  20366.62326711  .00000845  00000-0  80968-4 0  9992
2 43803  97.6844  74.6955 0013639 249.8745 110.1009 14.95685452113405
PSAT2 (NO-104)          
1 44354U 19036R   20366.80434328  .00013085  00000-0  18071-3 0  9995
2 44354  28.5302 160.5633 0344291 265.1978  90.9224 15.08604648 83590
BRICSAT2 (NO-103)       
1 44355U 19036S   20366.71224175  .00024107  00000-0  30037-3 0  9996
2 44355  28.5292 138.1849 0304319 301.6614  55.4636 15.18938018 83819
JAISAT-1                
1 44419U 19038F   20366.84278074  .00001576  00000-0  91936-4 0  9991
2 44419  97.5664 326.4725 0021532 165.8841 194.2996 15.13261560 82444
DUCHIFAT-3              
1 44854U 19089C   20366.71060266  .00000735  00000-0  65423-4 0  9996
2 44854  36.9668  12.4580 0008199 226.2891 133.7168 14.99276856 57910
RS-44 & BREEZE-KM R/B   
1 44909U 19096E   20366.84809730  .00000034  00000-0  83326-4 0  9990
2 44909  82.5204 224.1510 0218203 124.8493 237.3342 12.79708047 47438
ORBITAL FACTORY 2 (OF-2)
1 45113U 19071C   20366.77624121  .00004058  00000-0  13055-3 0  9993
2 45113  51.6417 129.7127 0012817  50.2007 310.0101 15.34500868 51419
HUSKYSAT-1              
1 45119U 19071J   20366.79609500  .00003175  00000-0  10423-3 0  9990
2 45119  51.6419 129.0942 0012144  46.9214 313.2782 15.34632017 51412
BY70-2                  
1 45857U 20042B   20366.81587140  .00001395  00000-0  20705-3 0  9993
2 45857  97.9999  78.2551 0011396  41.4638 318.7423 14.76590858 26804
SALSAT                  
1 46495U 20068K   20366.93412905  .00000170  00000-0  17074-4 0  9995
2 46495  97.6803 299.5908 0014969 282.2582  77.6965 15.03312871 14166
BY70-3                  
1 46839U 20079N   20366.84448263  .00003795  00000-0  12298-3 0  9993
2 46839  97.2606  78.0034 0009036  88.0490  48.8148 15.32568728  8526
OSCAR 7 (AO-7)          
1 07530U 74089B   20366.69339779 -.00000046  00000-0 -47665-5 0  9998
2 07530 101.8310 335.5369 0012275 345.8767 188.4059 12.53646768110704
